[{"OBJECT_NAME":"STARLINK-5836","OBJECT_ID":"2023-061N","EPOCH":"2025-07-31T08:30:36.166464","MEAN_MOTION":15.02537368,"ECCENTRICITY":0.0001347,"INCLINATION":43.005,"RA_OF_ASC_NODE":319.8311,"ARG_OF_PERICENTER":265.8748,"MEAN_ANOMALY":94.194,"EPHEMERIS_TYPE":0,"CLASSIFICATION_TYPE":"U","NORAD_CAT_ID":56386,"ELEMENT_SET_NO":999,"REV_AT_EPOCH":12346,"BSTAR":7.1512e-5,"MEAN_MOTION_DOT":7.62e-6,"MEAN_MOTION_DDOT":0},{"OBJECT_NAME":"STARLINK-6178","OBJECT_ID":"2023-061P","EPOCH":"2025-07-31T14:39:08.788032","MEAN_MOTION":15.02540452,"ECCENTRICITY":0.0001237,"INCLINATION":43.0042,"RA_OF_ASC_NODE":318.3156,"ARG_OF_PERICENTER":266.4801,"MEAN_ANOMALY":93.59,"EPHEMERIS_TYPE":0,"CLASSIFICATION_TYPE":"U","NORAD_CAT_ID":56387,"ELEMENT_SET_NO":999,"REV_AT_EPOCH":12379,"BSTAR":0.00012364,"MEAN_MOTION_DOT":1.467e-5,"MEAN_MOTION_DDOT":0},{"OBJECT_NAME":"STARLINK-6176","OBJECT_ID":"2023-061Q","EPOCH":"2025-07-31T15:36:50.209632","MEAN_MOTION":15.02404602,"ECCENTRICITY":4.95e-5,"INCLINATION":43.003,"RA_OF_ASC_NODE":318.6035,"ARG_OF_PERICENTER":266.2445,"MEAN_ANOMALY":93.8341,"EPHEMERIS_TYPE":0,"CLASSIFICATION_TYPE":"U","NORAD_CAT_ID":56388,"ELEMENT_SET_NO":999,"REV_AT_EPOCH":12379,"BSTAR":-0.0013688,"MEAN_MOTION_DOT":-0.0001858,"MEAN_MOTION_DDOT":0},{"OBJECT_NAME":"STARLINK-6145","OBJECT_ID":"2023-061R","EPOCH":"2025-07-31T06:59:39.915744","MEAN_MOTION":15.0253357,"ECCENTRICITY":0.0001451,"INCLINATION":43.005,"RA_OF_ASC_NODE":320.2177,"ARG_OF_PERICENTER":258.2019,"MEAN_ANOMALY":101.8661,"EPHEMERIS_TYPE":0,"CLASSIFICATION_TYPE":"U","NORAD_CAT_ID":56389,"ELEMENT_SET_NO":999,"REV_AT_EPOCH":12345,"BSTAR":0.00019429,"MEAN_MOTION_DOT":2.422e-5,"MEAN_MOTION_DDOT":0},{"OBJECT_NAME":"STARLINK-6298","OBJECT_ID":"2023-061T","EPOCH":"2025-07-31T14:48:42.849504","MEAN_MOTION":15.02539539,"ECCENTRICITY":0.000133,"INCLINATION":43.0042,"RA_OF_ASC_NODE":318.3607,"ARG_OF_PERICENTER":273.2833,"MEAN_ANOMALY":86.7857,"EPHEMERIS_TYPE":0,"CLASSIFICATION_TYPE":"U","NORAD_CAT_ID":56391,"ELEMENT_SET_NO":999,"REV_AT_EPOCH":12379,"BSTAR":6.7349e-5,"MEAN_MOTION_DOT":7.06e-6,"MEAN_MOTION_DDOT":0},{"OBJECT_NAME":"STARLINK-6301","OBJECT_ID":"2023-061U","EPOCH":"2025-07-31T06:53:49.021152","MEAN_MOTION":15.02536687,"ECCENTRICITY":0.0001038,"INCLINATION":43.0036,"RA_OF_ASC_NODE":308.055,"ARG_OF_PERICENTER":273.3409,"MEAN_ANOMALY":86.7315,"EPHEMERIS_TYPE":0,"CLASSIFICATION_TYPE":"U","NORAD_CAT_ID":56392,"ELEMENT_SET_NO":999,"REV_AT_EPOCH":12359,"BSTAR":3.6832e-5,"MEAN_MOTION_DOT":2.94e-6,"MEAN_MOTION_DDOT":0},{"OBJECT_NAME":"STARLINK-6303","OBJECT_ID":"2023-061V","EPOCH":"2025-07-31T17:55:23.664288","MEAN_MOTION":15.02537237,"ECCENTRICITY":0.0001304,"INCLINATION":43.0039,"RA_OF_ASC_NODE":317.6183,"ARG_OF_PERICENTER":272.0782,"MEAN_ANOMALY":87.9911,"EPHEMERIS_TYPE":0,"CLASSIFICATION_TYPE":"U","NORAD_CAT_ID":56393,"ELEMENT_SET_NO":999,"REV_AT_EPOCH":12381,"BSTAR":0.00019246,"MEAN_MOTION_DOT":2.397e-5,"MEAN_MOTION_DDOT":0},{"OBJECT_NAME":"STARLINK-6305","OBJECT_ID":"2023-061W","EPOCH":"2025-07-31T13:00:46.972512","MEAN_MOTION":15.02522007,"ECCENTRICITY":0.0001698,"INCLINATION":43.0053,"RA_OF_ASC_NODE":306.5319,"ARG_OF_PERICENTER":266.2435,"MEAN_ANOMALY":93.8213,"EPHEMERIS_TYPE":0,"CLASSIFICATION_TYPE":"U","NORAD_CAT_ID":56394,"ELEMENT_SET_NO":999,"REV_AT_EPOCH":12363,"BSTAR":-0.00014016,"MEAN_MOTION_DOT":-2.096e-5,"MEAN_MOTION_DDOT":0},{"OBJECT_NAME":"STARLINK-6273","OBJECT_ID":"2023-061X","EPOCH":"2025-07-31T17:52:43.247136","MEAN_MOTION":15.02552797,"ECCENTRICITY":0.0001205,"INCLINATION":43.004,"RA_OF_ASC_NODE":305.4674,"ARG_OF_PERICENTER":265.3166,"MEAN_ANOMALY":94.7539,"EPHEMERIS_TYPE":0,"CLASSIFICATION_TYPE":"U","NORAD_CAT_ID":56395,"ELEMENT_SET_NO":999,"REV_AT_EPOCH":12395,"BSTAR":-0.0001827,"MEAN_MOTION_DOT":-2.672e-5,"MEAN_MOTION_DDOT":0},{"OBJECT_NAME":"STARLINK-6302","OBJECT_ID":"2023-061Y","EPOCH":"2025-07-31T06:29:50.617536","MEAN_MOTION":15.0253706,"ECCENTRICITY":0.0001171,"INCLINATION":43.004,"RA_OF_ASC_NODE":307.9322,"ARG_OF_PERICENTER":273.895,"MEAN_ANOMALY":86.1758,"EPHEMERIS_TYPE":0,"CLASSIFICATION_TYPE":"U","NORAD_CAT_ID":56396,"ELEMENT_SET_NO":999,"REV_AT_EPOCH":11872,"BSTAR":2.2646e-5,"MEAN_MOTION_DOT":1.02e-6,"MEAN_MOTION_DDOT":0},{"OBJECT_NAME":"STARLINK-6271","OBJECT_ID":"2023-061Z","EPOCH":"2025-07-31T13:08:44.187360","MEAN_MOTION":15.02538819,"ECCENTRICITY":0.0001258,"INCLINATION":43.0047,"RA_OF_ASC_NODE":306.5706,"ARG_OF_PERICENTER":271.883,"MEAN_ANOMALY":88.1868,"EPHEMERIS_TYPE":0,"CLASSIFICATION_TYPE":"U","NORAD_CAT_ID":56397,"ELEMENT_SET_NO":999,"REV_AT_EPOCH":12363,"BSTAR":8.7099e-5,"MEAN_MOTION_DOT":9.73e-6,"MEAN_MOTION_DDOT":0},{"OBJECT_NAME":"STARLINK-6288","OBJECT_ID":"2023-061AA","EPOCH":"2025-07-31T12:47:56.716512","MEAN_MOTION":15.02548791,"ECCENTRICITY":9.69e-5,"INCLINATION":43.0039,"RA_OF_ASC_NODE":306.4638,"ARG_OF_PERICENTER":268.7656,"MEAN_ANOMALY":91.3075,"EPHEMERIS_TYPE":0,"CLASSIFICATION_TYPE":"U","NORAD_CAT_ID":56398,"ELEMENT_SET_NO":999,"REV_AT_EPOCH":12363,"BSTAR":0.00013953,"MEAN_MOTION_DOT":1.682e-5,"MEAN_MOTION_DDOT":0},{"OBJECT_NAME":"STARLINK-6277","OBJECT_ID":"2023-061AB","EPOCH":"2025-07-31T17:43:12.031680","MEAN_MOTION":15.0248953,"ECCENTRICITY":4.37e-5,"INCLINATION":43.0025,"RA_OF_ASC_NODE":305.4232,"ARG_OF_PERICENTER":348.8872,"MEAN_ANOMALY":11.1961,"EPHEMERIS_TYPE":0,"CLASSIFICATION_TYPE":"U","NORAD_CAT_ID":56399,"ELEMENT_SET_NO":999,"REV_AT_EPOCH":12395,"BSTAR":-0.00042841,"MEAN_MOTION_DOT":-5.978e-5,"MEAN_MOTION_DDOT":0},{"OBJECT_NAME":"STARLINK-6267","OBJECT_ID":"2023-061AC","EPOCH":"2025-07-31T14:15:43.574112","MEAN_MOTION":15.02513283,"ECCENTRICITY":0.0001006,"INCLINATION":43.0038,"RA_OF_ASC_NODE":306.0604,"ARG_OF_PERICENTER":272.3,"MEAN_ANOMALY":87.7728,"EPHEMERIS_TYPE":0,"CLASSIFICATION_TYPE":"U","NORAD_CAT_ID":56400,"ELEMENT_SET_NO":999,"REV_AT_EPOCH":12393,"BSTAR":-0.00013286,"MEAN_MOTION_DOT":-1.997e-5,"MEAN_MOTION_DDOT":0},{"OBJECT_NAME":"STARLINK-6256","OBJECT_ID":"2023-061AD","EPOCH":"2025-07-31T12:51:31.460256","MEAN_MOTION":15.02541295,"ECCENTRICITY":0.0001365,"INCLINATION":43.0033,"RA_OF_ASC_NODE":293.4687,"ARG_OF_PERICENTER":265.3146,"MEAN_ANOMALY":94.7541,"EPHEMERIS_TYPE":0,"CLASSIFICATION_TYPE":"U","NORAD_CAT_ID":56401,"ELEMENT_SET_NO":999,"REV_AT_EPOCH":12378,"BSTAR":-4.7028e-5,"MEAN_MOTION_DOT":-8.39e-6,"MEAN_MOTION_DDOT":0},{"OBJECT_NAME":"STARLINK-6284","OBJECT_ID":"2023-061AF","EPOCH":"2025-07-31T14:18:55.097856","MEAN_MOTION":15.02524492,"ECCENTRICITY":0.0001343,"INCLINATION":43.0017,"RA_OF_ASC_NODE":306.0709,"ARG_OF_PERICENTER":264.209,"MEAN_ANOMALY":95.8599,"EPHEMERIS_TYPE":0,"CLASSIFICATION_TYPE":"U","NORAD_CAT_ID":56403,"ELEMENT_SET_NO":999,"REV_AT_EPOCH":12393,"BSTAR":-0.00029588,"MEAN_MOTION_DOT":-4.197e-5,"MEAN_MOTION_DDOT":0},{"OBJECT_NAME":"STARLINK-6287","OBJECT_ID":"2023-061AG","EPOCH":"2025-07-31T14:02:54.890592","MEAN_MOTION":15.02537181,"ECCENTRICITY":0.0001266,"INCLINATION":43.0045,"RA_OF_ASC_NODE":305.9891,"ARG_OF_PERICENTER":270.5289,"MEAN_ANOMALY":89.5408,"EPHEMERIS_TYPE":0,"CLASSIFICATION_TYPE":"U","NORAD_CAT_ID":56404,"ELEMENT_SET_NO":999,"REV_AT_EPOCH":12364,"BSTAR":1.0684e-5,"MEAN_MOTION_DOT":-5.9e-7,"MEAN_MOTION_DDOT":0}]
