STARLINK-5836           
1 56386U 23061N   25212.35458526  .00000762  00000+0  71512-4 0  9994
2 56386  43.0050 319.8311 0001347 265.8748  94.1940 15.02537368123466
STARLINK-6178           
1 56387U 23061P   25212.61051838  .00001467  00000+0  12364-3 0  9991
2 56387  43.0042 318.3156 0001237 266.4801  93.5900 15.02540452123797
STARLINK-6176           
1 56388U 23061Q   25212.65058113 -.00018580  00000+0 -13688-2 0  9994
2 56388  43.0030 318.6035 0000495 266.2445  93.8341 15.02404602123799
STARLINK-6145           
1 56389U 23061R   25212.29143421  .00002422  00000+0  19429-3 0  9998
2 56389  43.0050 320.2177 0001451 258.2019 101.8661 15.02533570123454
STARLINK-6298           
1 56391U 23061T   25212.61716261  .00000706  00000+0  67349-4 0  9993
2 56391  43.0042 318.3607 0001330 273.2833  86.7857 15.02539539123797
STARLINK-6301           
1 56392U 23061U   25212.28737293  .00000294  00000+0  36832-4 0  9990
2 56392  43.0036 308.0550 0001038 273.3409  86.7315 15.02536687123597
STARLINK-6303           
1 56393U 23061V   25212.74680167  .00002397  00000+0  19246-3 0  9994
2 56393  43.0039 317.6183 0001304 272.0782  87.9911 15.02537237123817
STARLINK-6305           
1 56394U 23061W   25212.54221033 -.00002096  00000+0 -14016-3 0  9994
2 56394  43.0053 306.5319 0001698 266.2435  93.8213 15.02522007123638
STARLINK-6273           
1 56395U 23061X   25212.74494499 -.00002672  00000+0 -18270-3 0  9991
2 56395  43.0040 305.4674 0001205 265.3166  94.7539 15.02552797123957
STARLINK-6302           
1 56396U 23061Y   25212.27072474  .00000102  00000+0  22646-4 0  9992
2 56396  43.0040 307.9322 0001171 273.8950  86.1758 15.02537060118725
STARLINK-6271           
1 56397U 23061Z   25212.54773365  .00000973  00000+0  87099-4 0  9999
2 56397  43.0047 306.5706 0001258 271.8830  88.1868 15.02538819123638
STARLINK-6288           
1 56398U 23061AA  25212.53329533  .00001682  00000+0  13953-3 0  9998
2 56398  43.0039 306.4638 0000969 268.7656  91.3075 15.02548791123638
STARLINK-6277           
1 56399U 23061AB  25212.73833370 -.00005978  00000+0 -42841-3 0  9992
2 56399  43.0025 305.4232 0000437 348.8872  11.1961 15.02489530123957
STARLINK-6267           
1 56400U 23061AC  25212.59425433 -.00001997  00000+0 -13286-3 0  9994
2 56400  43.0038 306.0604 0001006 272.3000  87.7728 15.02513283123932
STARLINK-6256           
1 56401U 23061AD  25212.53578079 -.00000839  00000+0 -47028-4 0  9990
2 56401  43.0033 293.4687 0001365 265.3146  94.7541 15.02541295123787
STARLINK-6284           
1 56403U 23061AF  25212.59647104 -.00004197  00000+0 -29588-3 0  9995
2 56403  43.0017 306.0709 0001343 264.2090  95.8599 15.02524492123931
STARLINK-6287           
1 56404U 23061AG  25212.58535753 -.00000059  00000+0  10684-4 0  9991
2 56404  43.0045 305.9891 0001266 270.5289  89.5408 15.02537181123643
